STARLINK-31193          
1 58797U 24012L   26068.34153555 -.00002875  00000+0 -94978-4 0  9992
2 58797  43.0014 167.1338 0001525 274.8459  85.2219 15.27580624121181
FLOCK 4G-2              
1 62661U 25009BE  26068.66207492  .00013752  00000+0  51068-3 0  9995
2 62661  97.4044 151.2221 0003181 329.2677  30.8376 15.27675260121321
